GLOBALSTAR M045         
1 25676U 99019A   25106.78979296 -.00000089  00000+0  43466-4 0  9999
2 25676  51.9943 120.2643 0000452  94.1103  77.6091 12.27061003185855
GLOBALSTAR M019         
1 25677U 99019B   25106.86142983 -.00000160  00000+0 -73177-3 0  9996
2 25677  51.9879 246.1104 0001596 168.4213 354.4318 12.13876795177699
GLOBALSTAR M044         
1 25678U 99019C   25106.55060802 -.00000041  00000+0  59084-3 0  9990
2 25678  51.9957 190.6254 0005927 278.9822 184.2178 11.90248681163982
GLOBALSTAR M042         
1 25679U 99019D   25106.74106301 -.00000044  00000+0  45021-3 0  9996
2 25679  52.0006 224.4174 0003405 164.8542 344.1889 12.22081666177747
GLOBALSTAR M025         
1 25770U 99031A   25106.78110913 -.00000069  00000+0 -46644-4 0  9991
2 25770  51.9823 301.5250 0002125  66.1516  18.7422 11.22558171474813
GLOBALSTAR M049         
1 25771U 99031B   25106.86973697 -.00000049  00000+0  56888-3 0  9994
2 25771  51.9902 333.0015 0001958 265.5769  94.4804 11.12113214110602
GLOBALSTAR M047         
1 25772U 99031C   25106.77557559 -.00000059  00000+0  30327-3 0  9991
2 25772  51.9863 336.0519 0016632 155.0231 205.1382 11.31927396464152
GLOBALSTAR M052         
1 25773U 99031D   25106.66949204 -.00000067  00000+0 -36723-4 0  9999
2 25773  51.9848  82.9890 0002491  67.5580 103.4077 11.15059012471643
